[
    {
        "Altitude(m)": 555601.0277683892,
        "Argument of Periapsis(deg)": 0.033114955553567506,
        "Eccentricity": 0.0,
        "Inclination(deg)": 53.0,
        "Latitude(deg)": 33.25960643001173,
        "Longitude(deg)": -74.54665582962645,
        "Mean Anomaly(deg)": 43.18536433788787,
        "RAAN(deg)": -0.04928315735991589,
        "Satellite Name": "Starlink Shell 1 21",
        "Satellite Number": 21,
        "Semi-Major Axis(m)": 6931778.249405717,
        "Time(s)": 950
    },
    {
        "Altitude(m)": 555680.9081435929,
        "Argument of Periapsis(deg)": 0.03346353403307874,
        "Eccentricity": 0.0,
        "Inclination(deg)": 53.0,
        "Latitude(deg)": 33.696114666760025,
        "Longitude(deg)": -74.0475643876665,
        "Mean Anomaly(deg)": 43.81219554144463,
        "RAAN(deg)": -0.049801927437388684,
        "Satellite Name": "Starlink Shell 1 21",
        "Satellite Number": 21,
        "Semi-Major Axis(m)": 6931778.249405717,
        "Time(s)": 960
    },
    {
        "Altitude(m)": 555761.3956411894,
        "Argument of Periapsis(deg)": 0.03381211251258998,
        "Eccentricity": 0.0,
        "Inclination(deg)": 53.0,
        "Latitude(deg)": 34.13020462250278,
        "Longitude(deg)": -73.54300107945653,
        "Mean Anomaly(deg)": 44.43902674500134,
        "RAAN(deg)": -0.050320697514861484,
        "Satellite Name": "Starlink Shell 1 21",
        "Satellite Number": 21,
        "Semi-Major Axis(m)": 6931778.249405717,
        "Time(s)": 970
    },
    {
        "Altitude(m)": 555842.4346643632,
        "Argument of Periapsis(deg)": 0.034160690992101214,
        "Eccentricity": 0.0,
        "Inclination(deg)": 53.0,
        "Latitude(deg)": 34.561812598068705,
        "Longitude(deg)": -73.03285056314053,
        "Mean Anomaly(deg)": 45.06585794855799,
        "RAAN(deg)": -0.05083946759233428,
        "Satellite Name": "Starlink Shell 1 21",
        "Satellite Number": 21,
        "Semi-Major Axis(m)": 6931778.249405717,
        "Time(s)": 980
    },
    {
        "Altitude(m)": 555923.9695429311,
        "Argument of Periapsis(deg)": 0.034509269471612446,
        "Eccentricity": 0.0,
        "Inclination(deg)": 53.0,
        "Latitude(deg)": 34.99087342220662,
        "Longitude(deg)": -72.51699606360164,
        "Mean Anomaly(deg)": 45.69268915211476,
        "RAAN(deg)": -0.05135823766980708,
        "Satellite Name": "Starlink Shell 1 21",
        "Satellite Number": 21,
        "Semi-Major Axis(m)": 6931778.249405717,
        "Time(s)": 990
    }
]